STARLINK-37927          
1 69556U 26135L   26190.30311140 -.00680150  00000+0 -58521-2 0  9993
2 69556  97.2843 218.5918 0001365 349.3579  10.7655 15.71196688  3756
STARLINK-37929          
1 69557U 26135M   26190.25002315 -.02607386  00000+0 -29511-1 0  9997
2 69557  97.2845 218.5205 0001260  61.8098 324.7130 15.65990489  4856
STARLINK-37954          
1 69558U 26135N   26190.25002315 -.02497575  00000+0 -28126-1 0  9996
2 69558  97.2850 218.5271 0001062  73.2888 318.6734 15.65953899  4856
STARLINK-37958          
1 69559U 26135P   26188.45641803  .00383711  00000+0  18840-2 0  9992
2 69559  97.2854 216.6654 0000816 105.5963 254.5396 15.81197842  3468
STARLINK-37950          
1 69560U 26135Q   26190.03900037  .00188918  00000+0  96177-3 0  9990
2 69560  97.2844 218.3394 0001602 110.3509 249.7932 15.80907766  3716
STARLINK-37952          
1 69561U 26135R   26190.25002315 -.02490768  00000+0 -23296-1 0  9990
2 69561  97.2845 218.5532 0001505  61.2332  30.7789 15.70452811  4853
STARLINK-37935          
1 69562U 26135S   26190.25002315 -.02504613  00000+0 -29188-1 0  9992
2 69562  97.2841 218.5356 0001122  72.1963 338.6690 15.65112217  4858
STARLINK-37936          
1 69563U 26135T   26190.25002315 -.02475003  00000+0 -26742-1 0  9996
2 69563  97.2847 218.5572 0001992  58.1370  49.3246 15.66931661  4852
STARLINK-37932          
1 69564U 26135U   26189.58620840  .00282538  00000+0  14235-2 0  9990
2 69564  97.2839 217.8870 0001584  53.5074 306.6340 15.80893645  3649
STARLINK-37916          
1 69565U 26135V   26190.28319037 -.00964977  00000+0 -64168-2 0  9999
2 69565  97.2856 218.6193 0001666  43.6806 316.4592 15.77911820  3752
STARLINK-37909          
1 69566U 26135W   26190.08575013  .00057417  00000+0  29861-3 0  9998
2 69566  97.2836 218.4303 0001077  30.9617 329.1715 15.80810139  3727
STARLINK-37934          
1 69567U 26135X   26188.44312228  .00293381  00000+0  14681-2 0  9998
2 69567  97.2845 216.6838 0003261 125.2579 234.8995 15.81011723  3469
STARLINK-37938          
1 69568U 26135Y   26190.25002315 -.02529761  00000+0 -29108-1 0  9991
2 69568  97.2846 218.5713 0001692  64.1190  69.1669 15.65459945  4855
STARLINK-37924          
1 69569U 26135Z   26190.25002315 -.02621929  00000+0 -19990-1 0  9999
2 69569  97.2846 218.6019 0001891  80.7778 135.1613 15.75385366  4852
STARLINK-37656          
1 69649U 26143A   26190.25002315 -.00016947  00000+0 -31049-3 0  9994
2 69649  97.2856 234.0773 0000897  86.7766 139.8782 15.49200548  4003
STARLINK-37646          
1 69650U 26143B   26190.25002315 -.01837061  00000+0 -22904-1 0  9993
2 69650  97.2845 234.2271 0001751  76.0394 133.2427 15.62898870  4007
STARLINK-37749          
1 69651U 26143C   26190.25002315 -.02503654  00000+0 -35706-1 0  9997
2 69651  97.2848 234.2227 0001983  69.9177 131.3208 15.59952126  4006
STARLINK-37819          
1 69652U 26143D   26190.25002315 -.00829180  00000+0 -12374-1 0  9997
2 69652  97.2849 234.1941 0001146  63.6124  77.7539 15.57379917  4003
STARLINK-37729          
1 69653U 26143E   26190.05860734  .00295257  00000+0  13893-2 0  9991
2 69653  97.2838 234.0894 0001152 187.5673 172.5579 15.82348664  3943
STARLINK-37838          
1 69654U 26143F   26190.25002315 -.02631227  00000+0 -30243-1 0  9999
2 69654  97.2845 234.2406 0001567  84.8417 168.9393 15.65640084  4001
STARLINK-37884          
1 69655U 26143G   26190.25002315 -.02393750  00000+0 -44158-1 0  9996
2 69655  97.2855 234.1902 0002128  73.5293  50.1861 15.52882820  4008
STARLINK-37876          
1 69656U 26143H   26190.25002315 -.02537963  00000+0 -30901-1 0  9994
2 69656  97.2850 234.2506 0001810  82.1456 184.0591 15.64056455  3904
STARLINK-37784          
1 69657U 26143J   26190.25002315 -.02427822  00000+0 -38920-1 0  9996
2 69657  97.2857 234.2014 0001896  59.6546  91.3415 15.56747896  3901
STARLINK-37851          
1 69658U 26143K   26190.25002315 -.02526105  00000+0 -33101-1 0  9997
2 69658  97.2851 234.2517 0001807  96.2952 174.3536 15.62174318  3898
STARLINK-37229          
1 69659U 26143L   26190.25002315 -.02562709  00000+0 -37777-1 0  9991
2 69659  97.2850 234.2158 0001757  68.2657 116.9719 15.59186994  3944
STARLINK-37556          
1 69660U 26143M   26190.25002315 -.02623280  00000+0 -33894-1 0  9991
2 69660  97.2846 234.2274 0001804  87.0707 135.3276 15.62685232  3944
STARLINK-37867          
1 69661U 26143N   26190.25002315 -.02528438  00000+0 -33232-1 0  9997
2 69661  97.2854 234.2523 0001879  84.2469 185.4836 15.62099919  3902
STARLINK-37852          
1 69662U 26143P   26190.25002315 -.00863717  00000+0 -13777-1 0  9990
2 69662  97.2851 234.1859 0001240  76.2341  48.5340 15.55687726  3903
STARLINK-37554          
1 69663U 26143Q   26190.25002315 -.02478578  00000+0 -34845-1 0  9999
2 69663  97.2852 234.2329 0002052  81.0335 145.6258 15.60284732  3944
STARLINK-37830          
1 69664U 26143R   26190.25002315 -.02507750  00000+0 -40499-1 0  9997
2 69664  97.2853 234.2064 0002128  65.0884 103.1869 15.56679010  3902
